[{"OBJECT_NAME":"STARLINK-30165","OBJECT_ID":"2023-107A","EPOCH":"2026-03-09T03:47:33.839520","MEAN_MOTION":15.26736421,"ECCENTRICITY":0.00014984,"INCLINATION":42.9999,"RA_OF_ASC_NODE":339.2931,"ARG_OF_PERICENTER":275.8397,"MEAN_ANOMALY":84.2284,"EPHEMERIS_TYPE":0,"CLASSIFICATION_TYPE":"U","NORAD_CAT_ID":57457,"ELEMENT_SET_NO":999,"REV_AT_EPOCH":14505,"BSTAR":7.0020691e-5,"MEAN_MOTION_DOT":1.619e-5,"MEAN_MOTION_DDOT":0},{"OBJECT_NAME":"TIANMU-1 18","OBJECT_ID":"2024-004D","EPOCH":"2026-03-09T22:24:47.717568","MEAN_MOTION":15.25857469,"ECCENTRICITY":0.00038525,"INCLINATION":97.4666,"RA_OF_ASC_NODE":255.1597,"ARG_OF_PERICENTER":0.8806,"MEAN_ANOMALY":359.2438,"EPHEMERIS_TYPE":0,"CLASSIFICATION_TYPE":"U","NORAD_CAT_ID":58703,"ELEMENT_SET_NO":999,"REV_AT_EPOCH":12063,"BSTAR":0.00032272775,"MEAN_MOTION_DOT":8.193e-5,"MEAN_MOTION_DDOT":0}]
